STARLINK-36367          
1 67629U 26020N   26045.08996239  .00262864  00000+0  12086-2 0  9999
2 67629  42.9974 285.4030 0002535 273.0397  87.0185 15.82099617  2363
STARLINK-36416          
1 67630U 26020P   26045.25002315  .00019075  00000+0  11987-3 0  9997
2 67630  42.9985 284.5862 0001830 272.7121 214.9282 15.76364488  3621
STARLINK-36527          
1 67631U 26020Q   26045.02526174  .00463040  00000+0  20784-2 0  9996
2 67631  42.9981 285.7773 0001700 321.8647  38.2104 15.82094092  2354
STARLINK-36633          
1 67632U 26020R   26045.02451593  .00294931  00000+0  13493-2 0  9999
2 67632  42.9977 285.7709 0002360 264.7997  95.2606 15.82121897  2359
STARLINK-36637          
1 67633U 26020S   26045.25002315  .00009392  00000+0  60587-4 0  9992
2 67633  42.9986 284.5553 0001752 268.6906 231.3846 15.76372624  3620
STARLINK-36617          
1 67634U 26020T   26045.02323276  .00463043  00000+0  20712-2 0  9991
2 67634  42.9980 285.7604 0002077 296.7235  63.3424 15.82169483  2351
STARLINK-36627          
1 67635U 26020U   26045.25002315  .00087953  00000+0  53825-3 0  9999
2 67635  42.9988 284.4610 0001834 278.9125 258.4981 15.76334801  3620
STARLINK-36624          
1 67636U 26020V   26045.02137277  .00430809  00000+0  19402-2 0  9995
2 67636  42.9981 285.7455 0001542 311.8139  48.2601 15.82105448  2356
STARLINK-36610          
1 67637U 26020W   26045.25002315  .00013471  00000+0  85595-4 0  9995
2 67637  42.9986 284.4925 0001609 268.1000 256.8638 15.76363865  3625
STARLINK-36599          
1 67638U 26020X   26045.01908254  .00507762  00000+0  22616-2 0  9991
2 67638  42.9979 285.7263 0002489 300.9202  59.1425 15.82146081  2356
STARLINK-36595          
1 67639U 26020Y   26045.14455304  .00281189  00000+0  12908-2 0  9994
2 67639  42.9977 284.9456 0002625 258.5611 101.4966 15.82083673  2374
STARLINK-36570          
1 67640U 26020Z   26045.25002315 -.00008870  00000+0 -51512-4 0  9990
2 67640  42.9987 284.3985 0001789 251.6806 310.6055 15.76374874  3629
